{
  "type": "FeatureCollection",
  "features": [
    {
      "type": "Feature",
      "properties": {
        "norad_id": 38857,
        "name": "GSAT0103 (GALILEO-FM3)",
        "group": "gnss",
        "lat": -20.015885559875535,
        "lon": 92.03865736513515,
        "alt_km": 23221.630166732008,
        "timestamp": "2025-12-21T16:47:54.980137+00:00",
        "meta_object_name": "GSAT0103 (GALILEO-FM3)",
        "meta_object_id": "2012-055A",
        "meta_epoch": "2025-12-18T05:17:11.481792",
        "meta_mean_motion": 1.70473412,
        "meta_eccentricity": 0.00028558,
        "meta_inclination": 55.6954,
        "meta_ra_of_asc_node": 106.5161,
        "meta_arg_of_pericenter": 269.0808,
        "meta_mean_anomaly": 90.8455,
        "meta_ephemeris_type": 0,
        "meta_classification_type": "U",
        "meta_norad_cat_id": 38857,
        "meta_element_set_no": 999,
        "meta_rev_at_epoch": 8192,
        "meta_bstar": 0,
        "meta_mean_motion_dot": -7e-08,
        "meta_mean_motion_ddot": 0,
        "tle_line1": "1 38857U 12055A   25352.22027178 -.00000007  00000+0  00000+0 0  9996",
        "tle_line2": "2 38857  55.6954 106.5161 0002855 269.0808  90.8455  1.70473412 81920"
      },
      "geometry": {
        "type": "Point",
        "coordinates": [
          92.03865736513515,
          -20.015885559875535
        ]
      }
    },
    {
      "type": "Feature",
      "properties": {
        "norad_id": 38953,
        "name": "BEIDOU-2 G6 (C02)",
        "group": "gnss",
        "lat": -0.5935944405240556,
        "lon": 66.52347740917074,
        "alt_km": 35768.95637830161,
        "timestamp": "2025-12-21T16:47:54.980149+00:00",
        "meta_object_name": "BEIDOU-2 G6 (C02)",
        "meta_object_id": "2012-059A",
        "meta_epoch": "2025-12-21T08:27:34.104384",
        "meta_mean_motion": 1.00268734,
        "meta_eccentricity": 0.0008279,
        "meta_inclination": 3.9699,
        "meta_ra_of_asc_node": 75.4224,
        "meta_arg_of_pericenter": 292.346,
        "meta_mean_anomaly": 293.2331,
        "meta_ephemeris_type": 0,
        "meta_classification_type": "U",
        "meta_norad_cat_id": 38953,
        "meta_element_set_no": 999,
        "meta_rev_at_epoch": 4812,
        "meta_bstar": 0,
        "meta_mean_motion_dot": -1.54e-06,
        "meta_mean_motion_ddot": 0,
        "tle_line1": "1 38953U 12059A   25355.35247806 -.00000154  00000+0  00000+0 0  9999",
        "tle_line2": "2 38953   3.9699  75.4224 0008279 292.3460 293.2331  1.00268734 48121"
      },
      "geometry": {
        "type": "Point",
        "coordinates": [
          66.52347740917074,
          -0.5935944405240556
        ]
      }
    },
    {
      "type": "Feature",
      "properties": {
        "norad_id": 38977,
        "name": "LUCH 5B (SDCM/PRN 125)",
        "group": "gnss",
        "lat": -10.084615297942687,
        "lon": -33.68588768987063,
        "alt_km": 35781.85502523669,
        "timestamp": "2025-12-21T16:47:54.980161+00:00",
        "meta_object_name": "LUCH 5B (SDCM/PRN 125)",
        "meta_object_id": "2012-061A",
        "meta_epoch": "2025-12-21T09:41:49.492320",
        "meta_mean_motion": 1.00272311,
        "meta_eccentricity": 0.000659,
        "meta_inclination": 10.0988,
        "meta_ra_of_asc_node": 51.6228,
        "meta_arg_of_pericenter": 195.5411,
        "meta_mean_anomaly": 332.1896,
        "meta_ephemeris_type": 0,
        "meta_classification_type": "U",
        "meta_norad_cat_id": 38977,
        "meta_element_set_no": 999,
        "meta_rev_at_epoch": 4782,
        "meta_bstar": 0,
        "meta_mean_motion_dot": -1.21e-06,
        "meta_mean_motion_ddot": 0,
        "tle_line1": "1 38977U 12061A   25355.40404505 -.00000121  00000+0  00000+0 0  9999",
        "tle_line2": "2 38977  10.0988  51.6228 0006590 195.5411 332.1896  1.00272311 47822"
      },
      "geometry": {
        "type": "Point",
        "coordinates": [
          -33.68588768987063,
          -10.084615297942687
        ]
      }
    },
    {
      "type": "Feature",
      "properties": {
        "norad_id": 39155,
        "name": "COSMOS 2485 (747)",
        "group": "gnss",
        "lat": 44.29978508770443,
        "lon": -127.03404386007055,
        "alt_km": 19136.01516341534,
        "timestamp": "2025-12-21T16:47:54.980172+00:00",
        "meta_object_name": "COSMOS 2485 (747)",
        "meta_object_id": "2013-019A",
        "meta_epoch": "2025-12-20T02:56:15.241632",
        "meta_mean_motion": 2.1310322,
        "meta_eccentricity": 0.0024876,
        "meta_inclination": 65.3174,
        "meta_ra_of_asc_node": 79.6189,
        "meta_arg_of_pericenter": 230.2075,
        "meta_mean_anomaly": 129.6042,
        "meta_ephemeris_type": 0,
        "meta_classification_type": "U",
        "meta_norad_cat_id": 39155,
        "meta_element_set_no": 999,
        "meta_rev_at_epoch": 9846,
        "meta_bstar": 0,
        "meta_mean_motion_dot": -2e-07,
        "meta_mean_motion_ddot": 0,
        "tle_line1": "1 39155U 13019A   25354.12239863 -.00000020  00000+0  00000+0 0  9991",
        "tle_line2": "2 39155  65.3174  79.6189 0024876 230.2075 129.6042  2.13103220 98462"
      },
      "geometry": {
        "type": "Point",
        "coordinates": [
          -127.03404386007055,
          44.29978508770443
        ]
      }
    },
    {
      "type": "Feature",
      "properties": {
        "norad_id": 39166,
        "name": "GPS BIIF-4  (PRN 27)",
        "group": "gnss",
        "lat": 6.2213059876024515,
        "lon": -79.37264342541934,
        "alt_km": 19902.28563370807,
        "timestamp": "2025-12-21T16:47:54.980183+00:00",
        "meta_object_name": "GPS BIIF-4  (PRN 27)",
        "meta_object_id": "2013-023A",
        "meta_epoch": "2025-12-21T04:35:02.241024",
        "meta_mean_motion": 2.00564674,
        "meta_eccentricity": 0.0138431,
        "meta_inclination": 54.6447,
        "meta_ra_of_asc_node": 276.2247,
        "meta_arg_of_pericenter": 48.7169,
        "meta_mean_anomaly": 312.5052,
        "meta_ephemeris_type": 0,
        "meta_classification_type": "U",
        "meta_norad_cat_id": 39166,
        "meta_element_set_no": 999,
        "meta_rev_at_epoch": 9231,
        "meta_bstar": 0,
        "meta_mean_motion_dot": -1.7e-07,
        "meta_mean_motion_ddot": 0,
        "tle_line1": "1 39166U 13023A   25355.19099816 -.00000017  00000+0  00000+0 0  9994",
        "tle_line2": "2 39166  54.6447 276.2247 0138431  48.7169 312.5052  2.00564674 92319"
      },
      "geometry": {
        "type": "Point",
        "coordinates": [
          -79.37264342541934,
          6.2213059876024515
        ]
      }
    },
    {
      "type": "Feature",
      "properties": {
        "norad_id": 39199,
        "name": "IRNSS-1A",
        "group": "gnss",
        "lat": -16.22689765157719,
        "lon": 42.23156336696263,
        "alt_km": 35839.74606307546,
        "timestamp": "2025-12-21T16:47:54.980195+00:00",
        "meta_object_name": "IRNSS-1A",
        "meta_object_id": "2013-034A",
        "meta_epoch": "2025-12-18T18:41:43.776960",
        "meta_mean_motion": 1.00272479,
        "meta_eccentricity": 0.0024472,
        "meta_inclination": 35.3183,
        "meta_ra_of_asc_node": 66.4661,
        "meta_arg_of_pericenter": 211.0525,
        "meta_mean_anomaly": 145.3931,
        "meta_ephemeris_type": 0,
        "meta_classification_type": "U",
        "meta_norad_cat_id": 39199,
        "meta_element_set_no": 999,
        "meta_rev_at_epoch": 4555,
        "meta_bstar": 0,
        "meta_mean_motion_dot": 6.5e-07,
        "meta_mean_motion_ddot": 0,
        "tle_line1": "1 39199U 13034A   25352.77897890  .00000065  00000+0  00000+0 0  9993",
        "tle_line2": "2 39199  35.3183  66.4661 0024472 211.0525 145.3931  1.00272479 45557"
      },
      "geometry": {
        "type": "Point",
        "coordinates": [
          42.23156336696263,
          -16.22689765157719
        ]
      }
    },
    {
      "type": "Feature",
      "properties": {
        "norad_id": 39533,
        "name": "GPS BIIF-5  (PRN 30)",
        "group": "gnss",
        "lat": 9.49015360562086,
        "lon": 163.62507835797194,
        "alt_km": 20355.776975903762,
        "timestamp": "2025-12-21T16:47:54.980208+00:00",
        "meta_object_name": "GPS BIIF-5  (PRN 30)",
        "meta_object_id": "2014-008A",
        "meta_epoch": "2025-12-20T04:30:10.868256",
        "meta_mean_motion": 2.00559606,
        "meta_eccentricity": 0.00799985,
        "meta_inclination": 53.6333,
        "meta_ra_of_asc_node": 156.6204,
        "meta_arg_of_pericenter": 226.3975,
        "meta_mean_anomaly": 132.9264,
        "meta_ephemeris_type": 0,
        "meta_classification_type": "U",
        "meta_norad_cat_id": 39533,
        "meta_element_set_no": 999,
        "meta_rev_at_epoch": 8609,
        "meta_bstar": 0,
        "meta_mean_motion_dot": 6.4e-07,
        "meta_mean_motion_ddot": 0,
        "tle_line1": "1 39533U 14008A   25354.18762579  .00000064  00000+0  00000+0 0  9998",
        "tle_line2": "2 39533  53.6333 156.6204 0079998 226.3975 132.9264  2.00559606 86091"
      },
      "geometry": {
        "type": "Point",
        "coordinates": [
          163.62507835797194,
          9.49015360562086
        ]
      }
    }
  ]
}